SAR-LUPE 2              
1 31797U 07030A   26116.60010882  .00031485  00000+0  67985-3 0  9996
2 31797  98.0994 214.9266 0009842 293.8039  66.2175 15.44434505 48964
SAPPHIRE                
1 39088U 13009C   26116.78175367  .00000108  00000+0  52788-4 0  9993
2 39088  98.4252 297.4608 0012031  46.7189 313.4999 14.35226188689201
PRAETORIAN SDA_602      
1 65565U 25203A   26116.85262419  .00000248  00000+0  21098-3 0  9998
2 65565  81.3038  58.3153 0005848 344.3711  15.7264 13.84335849 31596
PRAETORIAN SDA_603      
1 65566U 25203B   26116.86311664  .00000207  00000+0  17609-3 0  9995
2 65566  81.3046  58.1834 0009861 339.8038  20.2727 13.83898764 31606
PRAETORIAN SDA_604      
1 65567U 25203C   26116.85095862  .00000014  00000+0  15175-5 0  9998
2 65567  81.3058  58.5302 0005575 352.6818   7.4256 13.83038875 31581
PRAETORIAN SDA_605      
1 65568U 25203D   26116.83067046  .00000085  00000+0  66963-4 0  9998
2 65568  81.3025  58.2624 0007976 337.1541  22.9259 13.83426865 31594
PRAETORIAN SDA_606      
1 65569U 25203E   26116.81440067  .00000101  00000+0  81098-4 0  9990
2 65569  81.3061  58.4817 0005708 342.1713  17.9242 13.83534444 31587
PRAETORIAN SDA_607      
1 65570U 25203F   26116.85295449  .00000256  00000+0  21843-3 0  9990
2 65570  81.3042  58.1839 0008686 340.4882  19.5941 13.84319282 31604
PRAETORIAN SDA_608      
1 65571U 25203G   26116.81283749  .00000053  00000+0  36726-4 0  9999
2 65571  81.3013  58.3621 0006041 350.4333   9.6707 13.83808478 31585
PRAETORIAN SDA_609      
1 65572U 25203H   26116.83531527  .00000242  00000+0  20628-3 0  9995
2 65572  81.3058  58.3386 0006787 342.1776  17.9142 13.84303556 31593
PRAETORIAN SDA_610      
1 65573U 25203J   26116.79520271  .00000048  00000+0  32166-4 0  9990
2 65573  81.3014  58.3415 0006429 345.9325  14.1651 13.83914715 31580
PRAETORIAN SDA_611      
1 65574U 25203K   26116.84687668  .00000630  00000+0  56336-3 0  9992
2 65574  81.3013  58.4131 0005814 355.6924   4.4181 13.83302758 31584
PRAETORIAN SDA_612      
1 65575U 25203L   26116.82828169  .00000339  00000+0  28911-3 0  9998
2 65575  81.3035  58.1436 0009069 340.1084  19.9718 13.85030244 31606
PRAETORIAN SDA_613      
1 65576U 25203M   26116.83661394  .00000059  00000+0  43596-4 0  9991
2 65576  81.3006  58.3873 0005677 348.1141  11.9880 13.82946556 31583
PRAETORIAN SDA_614      
1 65577U 25203N   26116.80783014  .00000058  00000+0  40945-4 0  9997
2 65577  81.3021  58.2277 0006972 340.4021  19.6867 13.84770800 31601
PRAETORIAN SDA_615      
1 65578U 25203P   26116.84428523  .00000335  00000+0  28843-3 0  9993
2 65578  81.3030  58.1250 0008861 338.5957  21.4828 13.84428453 31609
PRAETORIAN SDA_616      
1 65579U 25203Q   26116.84559854  .00000305  00000+0  26700-3 0  9993
2 65579  81.3070  58.5284 0005526 354.9953   5.1147 13.83317620 31580
PRAETORIAN SDA_617      
1 65580U 25203R   26116.86259538  .00000063  00000+0  47059-4 0  9995
2 65580  81.3043  58.3482 0007306 340.6740  19.4138 13.83197120 31594
PRAETORIAN SDA_618      
1 65581U 25203S   26116.82157110  .00000216  00000+0  18141-3 0  9994
2 65581  81.3031  58.1014 0009601 339.1830  20.8934 13.84767072 31606
PRAETORIAN SDA_619      
1 65582U 25203T   26116.82631199  .00000226  00000+0  19327-3 0  9997
2 65582  81.3050  58.3141 0007845 338.7327  21.3502 13.83937039 32222
PRAETORIAN SDA_620      
1 65583U 25203U   26116.84395176  .00000308  00000+0  26838-3 0  9998
2 65583  81.3036  58.3038 0007373 336.5971  23.4848 13.83612835 31598
PRAETORIAN SDA_621      
1 65584U 25203V   26116.82448043  .00000078  00000+0  59745-4 0  9997
2 65584  81.3027  58.2596 0007109 334.5142  25.5662 13.83792989 31598
PRAETORIAN SDA_601      
1 65585U 25203W   26116.84784698  .00000252  00000+0  21875-3 0  9995
2 65585  81.3039  58.4830 0005589 354.7532   5.3564 13.83423276 31588
